IRIDIUM 64 [+]          
1 25287U 98021C   17146.80741831  .00000173  00000-0  54792-4 0  9997
2 25287  86.3992 232.8685 0002184  93.8886 266.2560 14.34225089  1662
IRIDIUM 65 [+]          
1 25288U 98021D   17146.74400129  .00000179  00000-0  56935-4 0  9990
2 25288  86.3990 232.7989 0002481  92.7161 267.4319 14.34224908  1665
IRIDIUM 66 [+]          
1 25289U 98021E   17146.82009907  .00000181  00000-0  57418-4 0  9999
2 25289  86.3989 232.6706 0002444  95.4258 264.7217 14.34225347  1964
IRIDIUM 67 [+]          
1 25290U 98021F   17146.82645122  .00000173  00000-0  54814-4 0  9994
2 25290  86.3990 232.8039 0002376  95.2615 264.8852 14.34225038  1679
IRIDIUM 68 [+]          
1 25291U 98021G   17146.83281619  .00000176  00000-0  55832-4 0  9997
2 25291  86.3992 232.9195 0002334  93.8743 266.2720 14.34221005  1610
IRIDIUM 69 [-]          
1 25319U 98026A   17146.89807781  .00000092  00000-0  23625-4 0  9995
2 25319  86.4009 254.6536 0002433  48.0802 312.0604 14.38668251999720
IRIDIUM 71 [-]          
1 25320U 98026B   17146.89449973  .00000090  00000-0  22563-4 0  9990
2 25320  86.3996 250.5552 0004090  75.5744 284.5908 14.39083271   154
IRIDIUM 70 [+]          
1 25342U 98032A   17146.88491818  .00000175  00000-0  55544-4 0  9994
2 25342  86.3997 233.1387 0002498  94.9459  43.3106 14.34223486995760
IRIDIUM 72 [+]          
1 25343U 98032B   17146.84546420  .00000173  00000-0  54664-4 0  9991
2 25343  86.3991 232.7685 0002396  94.7072 265.4398 14.34223385995765
IRIDIUM 73 [-]          
1 25344U 98032C   17146.73586167  .00000143  00000-0  32429-4 0  9994
2 25344  86.4462 211.9969 0002913 101.1935 258.9597 14.49035365  4146
IRIDIUM 74 [S]          
1 25345U 98032D   17146.87835069  .00000192  00000-0  51943-4 0  9994
2 25345  86.4506 233.1915 0008978 100.8373  35.3321 14.42454062999385
IRIDIUM 75 [+]          
1 25346U 98032E   17146.85181054  .00000174  00000-0  55029-4 0  9990
2 25346  86.3994 233.0173 0002372  95.1234 265.0232 14.34223322996345
IRIDIUM 3 [+]           
1 25431U 98048A   17146.93278780  .00000143  00000-0  43878-4 0  9999
2 25431  86.3967 264.5734 0002439  93.9748  44.5450 14.34217726982294
IRIDIUM 76 [+]          
1 25432U 98048B   17146.87742178  .00000143  00000-0  44029-4 0  9999
2 25432  86.3964 264.3513 0002364  98.2154  16.4682 14.34218898982545
IRIDIUM 82 [-]          
1 25467U 98051A   17146.77167361  .00001106  00000-0  81146-4 0  9996
2 25467  86.4029  30.2846 0185831 107.1235 255.0435 14.89203268983662
IRIDIUM 81 [+]          
1 25468U 98051B   17146.75197464  .00000177  00000-0  51261-4 0  9994
2 25468  86.4255  30.7520 0002056  95.2997 264.8436 14.38609445979741
IRIDIUM 80 [+]          
1 25469U 98051C   17146.82725793  .00000178  00000-0  56396-4 0  9990
2 25469  86.3986  31.0213 0002105  65.0406 342.0912 14.34214921979745
IRIDIUM 77 [+]          
1 25471U 98051E   17146.83692226  .00000196  00000-0  57670-4 0  9994
2 25471  86.4246  30.5697 0002590  88.9139 317.7015 14.38642595984726
IRIDIUM 2 [-]           
1 25527U 98066A   17146.80942477  .00001164  00000-0  57791-4 0  9995
2 25527  85.5324  44.8744 0009859 155.0162 205.1557 15.16487076 15121
IRIDIUM 86 [+]          
1 25528U 98066B   17146.69420955  .00000053  00000-0  11714-4 0  9996
2 25528  86.3952 358.7929 0002348  86.3903 273.7561 14.34218888976040
IRIDIUM 84 [+]          
1 25530U 98066D   17146.72592124  .00000069  00000-0  17460-4 0  9992
2 25530  86.3953 358.9441 0002186  89.3835 270.7611 14.34219436973851
IRIDIUM 83 [+]          
1 25531U 98066E   17146.68786664  .00000044  00000-0  85924-5 0  9996
2 25531  86.3957 359.0845 0002113  88.1961 271.9477 14.34219305970982
IRIDIUM 20 [+]          
1 25577U 98074A   17146.88696631  .00000142  00000-0  43605-4 0  9999
2 25577  86.3964 264.2688 0002313  94.3778 265.7682 14.34217800150773
IRIDIUM 11 [+]          
1 25578U 98074B   17146.92652351  .00000141  00000-0  43421-4 0  9991
2 25578  86.3963 264.4542 0002259  92.4681  46.3038 14.34218499974345
IRIDIUM 14 [+]          
1 25777U 99032A   17146.80109297  .00000182  00000-0  57888-4 0  9997
2 25777  86.3993 232.8696 0002503  93.8196 266.3286 14.34224618951531
IRIDIUM 21 [+]          
1 25778U 99032B   17146.83913033  .00000178  00000-0  56344-4 0  9993
2 25778  86.3991 232.8728 0002324  98.3670 261.7790 14.34223096944972
IRIDIUM 91 [+]          
1 27372U 02005A   17146.53712323  .00000066  00000-0  16465-4 0  9991
2 27372  86.3941 296.2124 0002637 100.1838 302.9590 14.34214677808529
IRIDIUM 90 [S]          
1 27373U 02005B   17146.83195826  .00000026  00000-0  17805-5 0  9994
2 27373  86.4467 359.0080 0002364  89.4179 270.7293 14.42951494808208
IRIDIUM 94 [+]          
1 27374U 02005C   17146.94040396  .00000145  00000-0  44882-4 0  9994
2 27374  86.3965 264.5778 0002914 104.7333   7.6505 14.34219188812878
IRIDIUM 95 [+]          
1 27375U 02005D   17146.77614177  .00000017  00000-0 -11587-5 0  9996
2 27375  86.3935 296.1374 0002516 112.4210 247.7253 14.34213436807812
IRIDIUM 96 [+]          
1 27376U 02005E   17146.54484706 -.00000026  00000-0 -16210-4 0  9993
2 27376  86.3965 328.2609 0001771 122.0264 238.1104 14.34217581213671
IRIDIUM 97 [+]          
1 27450U 02031A   17146.58291203 -.00000013  00000-0 -11805-4 0  9998
2 27450  86.3933 327.9291 0001909  83.3204 276.8209 14.34217512787088
IRIDIUM 98 [+]          
1 27451U 02031B   17146.83348369  .00000172  00000-0  54187-4 0  9997
2 27451  86.3980  31.1187 0002591  77.0993 329.3418 14.34215235788225
